{"type": "FeatureCollection", "features": [ {"type": "Feature", "properties": {"norad_id": 39634, "name": "SENTINEL-1A", "group": "resource", "lat": 35.75593775662396, "lon": -169.7073837734787, "alt_km": 692.8482282432651, "timestamp": "2025-12-25T07:00:33.699632+00:00", "meta": {"OBJECT_NAME": "SENTINEL-1A", "OBJECT_ID": "2014-016A", "EPOCH": "2025-12-24T23:46:12.472896", "MEAN_MOTION": 14.59199333, "ECCENTRICITY": 0.00012086, "INCLINATION": 98.1801, "RA_OF_ASC_NODE": 4.0504, "ARG_OF_PERICENTER": 87.596, "MEAN_ANOMALY": 272.5378, "EPHEMERIS_TYPE": 0, "CLASSIFICATION_TYPE": "U", "NORAD_CAT_ID": 39634, "ELEMENT_SET_NO": 999, "REV_AT_EPOCH": 62461, "BSTAR": -3.8834701e-05, "MEAN_MOTION_DOT": -2.29e-06, "MEAN_MOTION_DDOT": 0}, "tle": {"line1": "1 39634U 14016A   25358.99042214 -.00000229  00000+0 -38835-4 0  9996", "line2": "2 39634  98.1801   4.0504 0001208  87.5960 272.5378 14.59199333624613"}}, "geometry": {"type": "Point", "coordinates": [-169.7073837734787, 35.75593775662396]}}, {"type": "Feature", "properties": {"norad_id": 39731, "name": "KAZEOSAT 1", "group": "resource", "lat": 63.84843929009844, "lon": 53.5302603465116, "alt_km": 744.6768724816438, "timestamp": "2025-12-25T07:00:33.699642+00:00", "meta": {"OBJECT_NAME": "KAZEOSAT 1", "OBJECT_ID": "2014-024A", "EPOCH": "2025-12-24T22:22:56.132832", "MEAN_MOTION": 14.42068845, "ECCENTRICITY": 0.00012238, "INCLINATION": 98.3418, "RA_OF_ASC_NODE": 70.5658, "ARG_OF_PERICENTER": 96.9437, "MEAN_ANOMALY": 263.1892, "EPHEMERIS_TYPE": 0, "CLASSIFICATION_TYPE": "U", "NORAD_CAT_ID": 39731, "ELEMENT_SET_NO": 999, "REV_AT_EPOCH": 61344, "BSTAR": 5.3586907e-05, "MEAN_MOTION_DOT": 1.33e-06, "MEAN_MOTION_DDOT": 0}, "tle": {"line1": "1 39731U 14024A   25358.93259413  .00000133  00000+0  53587-4 0  9991", "line2": "2 39731  98.3418  70.5658 0001223  96.9437 263.1892 14.42068845613446"}}, "geometry": {"type": "Point", "coordinates": [53.5302603465116, 63.84843929009844]}}, {"type": "Feature", "properties": {"norad_id": 39766, "name": "ALOS-2", "group": "resource", "lat": -16.67332348842894, "lon": -88.4309865981675, "alt_km": 636.0208972607597, "timestamp": "2025-12-25T07:00:33.699652+00:00", "meta": {"OBJECT_NAME": "ALOS-2", "OBJECT_ID": "2014-029A", "EPOCH": "2025-12-24T23:37:49.057248", "MEAN_MOTION": 14.79466578, "ECCENTRICITY": 0.0001364, "INCLINATION": 97.9226, "RA_OF_ASC_NODE": 93.6564, "ARG_OF_PERICENTER": 101.0923, "MEAN_ANOMALY": 259.0442, "EPHEMERIS_TYPE": 0, "CLASSIFICATION_TYPE": "U", "NORAD_CAT_ID": 39766, "ELEMENT_SET_NO": 999, "REV_AT_EPOCH": 62582, "BSTAR": 0.00043861, "MEAN_MOTION_DOT": 3.225e-05, "MEAN_MOTION_DDOT": 0}, "tle": {"line1": "1 39766U 14029A   25358.98459557  .00003225  00000+0  43861-3 0  9998", "line2": "2 39766  97.9226  93.6564 0001364 101.0923 259.0442 14.79466578625827"}}, "geometry": {"type": "Point", "coordinates": [-88.4309865981675, -16.67332348842894]}}, {"type": "Feature", "properties": {"norad_id": 40010, "name": "KAZEOSAT 2", "group": "resource", "lat": 3.8728928772717532, "lon": -157.55600362989185, "alt_km": 621.1810845045102, "timestamp": "2025-12-25T07:00:33.699663+00:00", "meta": {"OBJECT_NAME": "KAZEOSAT 2", "OBJECT_ID": "2014-033A", "EPOCH": "2025-12-24T22:54:25.256736", "MEAN_MOTION": 14.85189482, "ECCENTRICITY": 0.00086823, "INCLINATION": 97.5496, "RA_OF_ASC_NODE": 202.6384, "ARG_OF_PERICENTER": 164.3015, "MEAN_ANOMALY": 195.8472, "EPHEMERIS_TYPE": 0, "CLASSIFICATION_TYPE": "U", "NORAD_CAT_ID": 40010, "ELEMENT_SET_NO": 999, "REV_AT_EPOCH": 62309, "BSTAR": 0.00013745115, "MEAN_MOTION_DOT": 1.128e-05, "MEAN_MOTION_DDOT": 0}, "tle": {"line1": "1 40010U 14033A   25358.95445899  .00001128  00000+0  13745-3 0  9996", "line2": "2 40010  97.5496 202.6384 0008682 164.3015 195.8472 14.85189482623092"}}, "geometry": {"type": "Point", "coordinates": [-157.55600362989185, 3.8728928772717532]}}, {"type": "Feature", "properties": {"norad_id": 40011, "name": "HODOYOSHI-4", "group": "resource", "lat": -16.89246123441245, "lon": 5.251636935803365, "alt_km": 597.3647984189693, "timestamp": "2025-12-25T07:00:33.699673+00:00", "meta": {"OBJECT_NAME": "HODOYOSHI-4", "OBJECT_ID": "2014-033B", "EPOCH": "2025-12-24T23:40:13.173312", "MEAN_MOTION": 14.87524623, "ECCENTRICITY": 0.00240913, "INCLINATION": 97.5411, "RA_OF_ASC_NODE": 187.2666, "ARG_OF_PERICENTER": 159.8188, "MEAN_ANOMALY": 200.3987, "EPHEMERIS_TYPE": 0, "CLASSIFICATION_TYPE": "U", "NORAD_CAT_ID": 40011, "ELEMENT_SET_NO": 999, "REV_AT_EPOCH": 62290, "BSTAR": 0.000220547, "MEAN_MOTION_DOT": 1.959e-05, "MEAN_MOTION_DDOT": 0}, "tle": {"line1": "1 40011U 14033B   25358.98626358  .00001959  00000+0  22055-3 0  9997", "line2": "2 40011  97.5411 187.2666 0024091 159.8188 200.3987 14.87524623622907"}}, "geometry": {"type": "Point", "coordinates": [5.251636935803365, -16.89246123441245]}}, {"type": "Feature", "properties": {"norad_id": 40013, "name": "DEIMOS-2", "group": "resource", "lat": -61.15978074355872, "lon": 40.63623657060019, "alt_km": 596.3877524142599, "timestamp": "2025-12-25T07:00:33.699684+00:00", "meta": {"OBJECT_NAME": "DEIMOS-2", "OBJECT_ID": "2014-033D", "EPOCH": "2025-12-24T21:53:10.459104", "MEAN_MOTION": 14.93023497, "ECCENTRICITY": 0.00013716, "INCLINATION": 97.6053, "RA_OF_ASC_NODE": 234.3111, "ARG_OF_PERICENTER": 106.5291, "MEAN_ANOMALY": 253.6079, "EPHEMERIS_TYPE": 0, "CLASSIFICATION_TYPE": "U", "NORAD_CAT_ID": 40013, "ELEMENT_SET_NO": 999, "REV_AT_EPOCH": 61171, "BSTAR": 0.00022203111, "MEAN_MOTION_DOT": 2.255e-05, "MEAN_MOTION_DDOT": 0}, "tle": {"line1": "1 40013U 14033D   25358.91192661  .00002255  00000+0  22203-3 0  9992", "line2": "2 40013  97.6053 234.3111 0001371 106.5291 253.6079 14.93023497611711"}}, "geometry": {"type": "Point", "coordinates": [40.63623657060019, -61.15978074355872]}}, {"type": "Feature", "properties": {"norad_id": 40015, "name": "HODOYOSHI-3", "group": "resource", "lat": 1.47798537288598, "lon": 164.3839121012584, "alt_km": 637.7031161506357, "timestamp": "2025-12-25T07:00:33.699694+00:00", "meta": {"OBJECT_NAME": "HODOYOSHI-3", "OBJECT_ID": "2014-033F", "EPOCH": "2025-12-24T21:17:55.130496", "MEAN_MOTION": 14.84847165, "ECCENTRICITY": 0.00325079, "INCLINATION": 97.6207, "RA_OF_ASC_NODE": 164.1949, "ARG_OF_PERICENTER": 206.6693, "MEAN_ANOMALY": 153.2851, "EPHEMERIS_TYPE": 0, "CLASSIFICATION_TYPE": "U", "NORAD_CAT_ID": 40015, "ELEMENT_SET_NO": 999, "REV_AT_EPOCH": 62175, "BSTAR": 0.00020552408, "MEAN_MOTION_DOT": 1.71e-05, "MEAN_MOTION_DDOT": 0}, "tle": {"line1": "1 40015U 14033F   25358.88744364  .00001710  00000+0  20552-3 0  9993", "line2": "2 40015  97.6207 164.1949 0032507 206.6693 153.2851 14.84847165621750"}}, "geometry": {"type": "Point", "coordinates": [164.3839121012584, 1.47798537288598]}}, {"type": "Feature", "properties": {"norad_id": 40053, "name": "SPOT 7", "group": "resource", "lat": 75.38967249261042, "lon": 28.01446827101136, "alt_km": 682.5067674935935, "timestamp": "2025-12-25T07:00:33.699704+00:00", "meta": {"OBJECT_NAME": "SPOT 7", "OBJECT_ID": "2014-034A", "EPOCH": "2025-12-24T22:26:05.116416", "MEAN_MOTION": 14.60747706, "ECCENTRICITY": 0.00015468, "INCLINATION": 98.0886, "RA_OF_ASC_NODE": 60.7283, "ARG_OF_PERICENTER": 82.7453, "MEAN_ANOMALY": 277.3924, "EPHEMERIS_TYPE": 0, "CLASSIFICATION_TYPE": "U", "NORAD_CAT_ID": 40053, "ELEMENT_SET_NO": 999, "REV_AT_EPOCH": 61169, "BSTAR": 7.1723674e-05, "MEAN_MOTION_DOT": 3.04e-06, "MEAN_MOTION_DDOT": 0}, "tle": {"line1": "1 40053U 14034A   25358.93478144  .00000304  00000+0  71724-4 0  9998", "line2": "2 40053  98.0886  60.7283 0001546  82.7453 277.3924 14.60747706611693"}}, "geometry": {"type": "Point", "coordinates": [28.01446827101136, 75.38967249261042]}}, {"type": "Feature", "properties": {"norad_id": 40072, "name": "SKYSAT-B", "group": "resource", "lat": 45.487475297487514, "lon": 132.2674265524259, "alt_km": 597.7309962471609, "timestamp": "2025-12-25T07:00:33.699714+00:00", "meta": {"OBJECT_NAME": "SKYSAT-B", "OBJECT_ID": "2014-037D", "EPOCH": "2025-12-24T14:15:52.515648", "MEAN_MOTION": 14.8736794, "ECCENTRICITY": 0.00068222, "INCLINATION": 98.3628, "RA_OF_ASC_NODE": 302.9274, "ARG_OF_PERICENTER": 117.0616, "MEAN_ANOMALY": 243.1296, "EPHEMERIS_TYPE": 0, "CLASSIFICATION_TYPE": "U", "NORAD_CAT_ID": 40072, "ELEMENT_SET_NO": 999, "REV_AT_EPOCH": 62000, "BSTAR": 0.00019301045, "MEAN_MOTION_DOT": 1.684e-05, "MEAN_MOTION_DDOT": 0}, "tle": {"line1": "1 40072U 14037D   25358.59435782  .00001684  00000+0  19301-3 0  9999", "line2": "2 40072  98.3628 302.9274 0006822 117.0616 243.1296 14.87367940620002"}}, "geometry": {"type": "Point", "coordinates": [132.2674265524259, 45.487475297487514]}}, {"type": "Feature", "properties": {"norad_id": 40115, "name": "WORLDVIEW-3 (WV-3)", "group": "resource", "lat": -78.23671466999663, "lon": 113.08436865558157, "alt_km": 623.1850443913809, "timestamp": "2025-12-25T07:00:33.699724+00:00", "meta": {"OBJECT_NAME": "WORLDVIEW-3 (WV-3)", "OBJECT_ID": "2014-048A", "EPOCH": "2025-12-24T21:40:11.764416", "MEAN_MOTION": 14.84674822, "ECCENTRICITY": 0.00020325, "INCLINATION": 97.8764, "RA_OF_ASC_NODE": 71.0345, "ARG_OF_PERICENTER": 129.448, "MEAN_ANOMALY": 230.6915, "EPHEMERIS_TYPE": 0, "CLASSIFICATION_TYPE": "U", "NORAD_CAT_ID": 40115, "ELEMENT_SET_NO": 999, "REV_AT_EPOCH": 61604, "BSTAR": 0.00013449526, "MEAN_MOTION_DOT": 1.085e-05, "MEAN_MOTION_DDOT": 0}, "tle": {"line1": "1 40115U 14048A   25358.90291394  .00001085  00000+0  13450-3 0  9997", "line2": "2 40115  97.8764  71.0345 0002032 129.4480 230.6915 14.84674822616048"}}, "geometry": {"type": "Point", "coordinates": [113.08436865558157, -78.23671466999663]}}]}